start=new Date('2022-03-23T00:00:00.000Z').valueOf();
sats=[{"FILE":"3370000","MEAN_MOTION":"15.76690345","TLE_LINE2":"2 45224  53.0444 251.6352 0003977   2.3925 357.7113 15.76690345118070","RA_OF_ASC_NODE":"251.6352","OBJECT_NAME":"STARLINK-1214","ECCENTRICITY":"0.00039770","PERIOD":"91.331","SEMIMAJOR_AXIS":"6717.962","INCLINATION":"53.0444","ELEMENT_SET_NO":"999","NORAD_CAT_ID":"45224","RCS_SIZE":"LARGE","TIME_SYSTEM":"UTC","LAUNCH_DATE":"2020-02-17","BSTAR":"0.00012595000000","EPOCH":"2022-03-22T12:21:24.214176","CENTER_NAME":"EARTH","PERIAPSIS":"337.156","GP_ID":"199403004","SITE":"AFETR","DECAY_DATE":null,"OBJECT_ID":"2020-012AY","MEAN_MOTION_DOT":"0.00019979","ARG_OF_PERICENTER":"2.3925","REF_FRAME":"TEME","REV_AT_EPOCH":"11807","MEAN_ANOMALY":"357.7113","MEAN_MOTION_DDOT":"0.0000000000000","CLASSIFICATION_TYPE":"U","TLE_LINE1":"1 45224U 20012AY  22081.51486359  .00019979  00000-0  12595-3 0  9996","APOAPSIS":"342.499","OBJECT_TYPE":"PAYLOAD","MEAN_ELEMENT_THEORY":"SGP4","COUNTRY_CODE":"US","EPHEMERIS_TYPE":"0"},{"MEAN_ELEMENT_THEORY":"SGP4","COUNTRY_CODE":"US","EPHEMERIS_TYPE":"0","MEAN_ANOMALY":"308.7900","MEAN_MOTION_DDOT":"0.0000000000000","CLASSIFICATION_TYPE":"U","TLE_LINE1":"1 45225U 20012AZ  22081.54916045 -.00001132  00000-0 -57096-4 0  9990","APOAPSIS":"548.672","OBJECT_TYPE":"PAYLOAD","OBJECT_ID":"2020-012AZ","MEAN_MOTION_DOT":"-0.00001132","ARG_OF_PERICENTER":"51.3275","REF_FRAME":"TEME","REV_AT_EPOCH":"11708","GP_ID":"199394740","SITE":"AFETR","DECAY_DATE":null,"EPOCH":"2022-03-22T13:10:47.462880","CENTER_NAME":"EARTH","PERIAPSIS":"545.790","NORAD_CAT_ID":"45225","RCS_SIZE":"LARGE","TIME_SYSTEM":"UTC","LAUNCH_DATE":"2020-02-17","BSTAR":"-0.00005709600000","ECCENTRICITY":"0.00020810","OBJECT_NAME":"STARLINK-1215","PERIOD":"95.593","SEMIMAJOR_AXIS":"6925.366","INCLINATION":"53.0554","ELEMENT_SET_NO":"999","FILE":"3369829","MEAN_MOTION":"15.06394203","TLE_LINE2":"2 45225  53.0554  27.5615 0002081  51.3275 308.7900 15.06394203117089","RA_OF_ASC_NODE":"27.5615"},{"ECCENTRICITY":"0.00018630","OBJECT_NAME":"STARLINK-1217","SEMIMAJOR_AXIS":"6925.375","INCLINATION":"53.0563","ELEMENT_SET_NO":"999","PERIOD":"95.593","TLE_LINE2":"2 45226  53.0563  26.3456 0001863  62.4685 297.6493 15.06391393116208","RA_OF_ASC_NODE":"26.3456","FILE":"3369999","MEAN_MOTION":"15.06391393","PERIAPSIS":"545.950","EPOCH":"2022-03-22T19:43:34.276800","CENTER_NAME":"EARTH","TIME_SYSTEM":"UTC","RCS_SIZE":"LARGE","NORAD_CAT_ID":"45226","LAUNCH_DATE":"2020-02-17","BSTAR":"-0.00003685900000","OBJECT_ID":"2020-012BA","ARG_OF_PERICENTER":"62.4685","MEAN_MOTION_DOT":"-0.00000830","REV_AT_EPOCH":"11620","REF_FRAME":"TEME","SITE":"AFETR","GP_ID":"199402992","DECAY_DATE":null,"MEAN_ELEMENT_THEORY":"SGP4","EPHEMERIS_TYPE":"0","COUNTRY_CODE":"US","APOAPSIS":"548.530","MEAN_MOTION_DDOT":"0.0000000000000","MEAN_ANOMALY":"297.6493","TLE_LINE1":"1 45226U 20012BA  22081.82192450 -.00000830  00000-0 -36859-4 0  9996","CLASSIFICATION_TYPE":"U","OBJECT_TYPE":"PAYLOAD"},{"REV_AT_EPOCH":"11616","REF_FRAME":"TEME","MEAN_MOTION_DOT":"0.00000396","ARG_OF_PERICENTER":"53.5431","OBJECT_ID":"2020-012BB","DECAY_DATE":null,"SITE":"AFETR","GP_ID":"199404331","EPHEMERIS_TYPE":"0","COUNTRY_CODE":"US","MEAN_ELEMENT_THEORY":"SGP4","OBJECT_TYPE":"PAYLOAD","APOAPSIS":"548.445","TLE_LINE1":"1 45227U 20012BB  22081.57864568  .00000396  00000-0  45466-4 0  9994","CLASSIFICATION_TYPE":"U","MEAN_ANOMALY":"306.5720","MEAN_MOTION_DDOT":"0.0000000000000","INCLINATION":"53.0551","ELEMENT_SET_NO":"999","SEMIMAJOR_AXIS":"6925.362","PERIOD":"95.592","OBJECT_NAME":"STARLINK-1221","ECCENTRICITY":"0.00017590","RA_OF_ASC_NODE":"27.4339","TLE_LINE2":"2 45227  53.0551  27.4339 0001759  53.5431 306.5720 15.06395555116164","MEAN_MOTION":"15.06395555","FILE":"3370043","PERIAPSIS":"546.009","CENTER_NAME":"EARTH","EPOCH":"2022-03-22T13:53:14.986752","BSTAR":"0.00004546600000","LAUNCH_DATE":"2020-02-17","TIME_SYSTEM":"UTC","RCS_SIZE":"LARGE","NORAD_CAT_ID":"45227"},{"DECAY_DATE":null,"GP_ID":"199426756","SITE":"AFETR","REF_FRAME":"TEME","REV_AT_EPOCH":"11706","MEAN_MOTION_DOT":"0.00001905","ARG_OF_PERICENTER":"55.4921","OBJECT_ID":"2020-012BC","OBJECT_TYPE":"PAYLOAD","TLE_LINE1":"1 45228U 20012BC  22081.84772385  .00001905  00000-0  14677-3 0  9996","CLASSIFICATION_TYPE":"U","MEAN_ANOMALY":"304.6241","MEAN_MOTION_DDOT":"0.0000000000000","APOAPSIS":"548.476","COUNTRY_CODE":"US","EPHEMERIS_TYPE":"0","MEAN_ELEMENT_THEORY":"SGP4","MEAN_MOTION":"15.06402740","FILE":"3370190","RA_OF_ASC_NODE":"26.2276","TLE_LINE2":"2 45228  53.0557  26.2276 0001835  55.4921 304.6241 15.06402740117060","PERIOD":"95.592","ELEMENT_SET_NO":"999","INCLINATION":"53.0557","SEMIMAJOR_AXIS":"6925.340","ECCENTRICITY":"0.00018350","OBJECT_NAME":"STARLINK-1222","BSTAR":"0.00014677000000","LAUNCH_DATE":"2020-02-17","NORAD_CAT_ID":"45228","RCS_SIZE":"LARGE","TIME_SYSTEM":"UTC","CENTER_NAME":"EARTH","EPOCH":"2022-03-22T20:20:43.340640","PERIAPSIS":"545.934"},{"EPHEMERIS_TYPE":"0","COUNTRY_CODE":"US","MEAN_ELEMENT_THEORY":"SGP4","OBJECT_TYPE":"PAYLOAD","APOAPSIS":"548.453","MEAN_ANOMALY":"312.4442","MEAN_MOTION_DDOT":"0.0000000000000","CLASSIFICATION_TYPE":"U","TLE_LINE1":"1 45229U 20012BD  22081.81086563  .00000268  00000-0  36876-4 0  9997","REV_AT_EPOCH":"11706","REF_FRAME":"TEME","OBJECT_ID":"2020-012BD","MEAN_MOTION_DOT":"0.00000268","ARG_OF_PERICENTER":"47.6698","DECAY_DATE":null,"SITE":"AFETR","GP_ID":"199426008","PERIAPSIS":"545.986","EPOCH":"2022-03-22T19:27:38.790432","CENTER_NAME":"EARTH","LAUNCH_DATE":"2020-02-17","BSTAR":"0.00003687600000","TIME_SYSTEM":"UTC","RCS_SIZE":"LARGE","NORAD_CAT_ID":"45229","SEMIMAJOR_AXIS":"6925.354","INCLINATION":"53.0566","ELEMENT_SET_NO":"999","PERIOD":"95.592","ECCENTRICITY":"0.00017810","OBJECT_NAME":"STARLINK-1226","TLE_LINE2":"2 45229  53.0566  26.4037 0001781  47.6698 312.4442 15.06398190117065","RA_OF_ASC_NODE":"26.4037","FILE":"3370190","MEAN_MOTION":"15.06398190"},{"RCS_SIZE":"LARGE","TIME_SYSTEM":"UTC","NORAD_CAT_ID":"45230","LAUNCH_DATE":"2020-02-17","BSTAR":"0.00002636200000","PERIAPSIS":"546.071","EPOCH":"2022-03-22T13:00:09.565632","CENTER_NAME":"EARTH","TLE_LINE2":"2 45230  53.0557  27.6002 0001653  51.1067 309.0069 15.06399410116196","RA_OF_ASC_NODE":"27.6002","FILE":"3370001","MEAN_MOTION":"15.06399410","OBJECT_NAME":"STARLINK-1227","ECCENTRICITY":"0.00016530","SEMIMAJOR_AXIS":"6925.350","ELEMENT_SET_NO":"999","INCLINATION":"53.0557","PERIOD":"95.592","APOAPSIS":"548.360","MEAN_ANOMALY":"309.0069","MEAN_MOTION_DDOT":"0.0000000000000","TLE_LINE1":"1 45230U 20012BE  22081.54177738  .00000111  00000-0  26362-4 0  9990","CLASSIFICATION_TYPE":"U","OBJECT_TYPE":"PAYLOAD","MEAN_ELEMENT_THEORY":"SGP4","EPHEMERIS_TYPE":"0","COUNTRY_CODE":"US","SITE":"AFETR","GP_ID":"199403030","DECAY_DATE":null,"OBJECT_ID":"2020-012BE","ARG_OF_PERICENTER":"51.1067","MEAN_MOTION_DOT":"0.00000111","REF_FRAME":"TEME","REV_AT_EPOCH":"11619"},{"ECCENTRICITY":"0.00091040","OBJECT_NAME":"STARLINK-1229","PERIOD":"91.329","SEMIMAJOR_AXIS":"6717.891","INCLINATION":"53.0270","ELEMENT_SET_NO":"999","FILE":"3370190","MEAN_MOTION":"15.76715390","TLE_LINE2":"2 45231  53.0270 255.4902 0009104 285.7789  74.2226 15.76715390118862","RA_OF_ASC_NODE":"255.4902","EPOCH":"2022-03-22T17:56:19.012992","CENTER_NAME":"EARTH","PERIAPSIS":"333.640","NORAD_CAT_ID":"45231","RCS_SIZE":"LARGE","TIME_SYSTEM":"UTC","LAUNCH_DATE":"2020-02-17","BSTAR":"0.00003877800000","OBJECT_ID":"2020-012BF","ARG_OF_PERICENTER":"285.7789","MEAN_MOTION_DOT":"0.00005695","REV_AT_EPOCH":"11886","REF_FRAME":"TEME","GP_ID":"199426506","SITE":"AFETR","DECAY_DATE":null,"MEAN_ELEMENT_THEORY":"SGP4","COUNTRY_CODE":"US","EPHEMERIS_TYPE":"0","MEAN_MOTION_DDOT":"0.0000000000000","MEAN_ANOMALY":"74.2226","CLASSIFICATION_TYPE":"U","TLE_LINE1":"1 45231U 20012BF  22081.74744228  .00005695  00000-0  38778-4 0  9993","APOAPSIS":"345.872","OBJECT_TYPE":"PAYLOAD"},{"FILE":"3369829","MEAN_MOTION":"15.06396430","TLE_LINE2":"2 45232  53.0562  27.5510 0001850  55.6729 304.4434 15.06396430117139","RA_OF_ASC_NODE":"27.5510","PERIOD":"95.592","SEMIMAJOR_AXIS":"6925.359","ELEMENT_SET_NO":"999","INCLINATION":"53.0562","OBJECT_NAME":"STARLINK-1235","ECCENTRICITY":"0.00018500","LAUNCH_DATE":"2020-02-17","BSTAR":"-0.00002665200000","NORAD_CAT_ID":"45232","TIME_SYSTEM":"UTC","RCS_SIZE":"LARGE","EPOCH":"2022-03-22T13:16:06.060288","CENTER_NAME":"EARTH","PERIAPSIS":"545.943","DECAY_DATE":null,"GP_ID":"199393996","SITE":"AFETR","REV_AT_EPOCH":"11713","REF_FRAME":"TEME","OBJECT_ID":"2020-012BG","ARG_OF_PERICENTER":"55.6729","MEAN_MOTION_DOT":"-0.00000679","OBJECT_TYPE":"PAYLOAD","MEAN_MOTION_DDOT":"0.0000000000000","MEAN_ANOMALY":"304.4434","TLE_LINE1":"1 45232U 20012BG  22081.55284792 -.00000679  00000-0 -26652-4 0  9995","CLASSIFICATION_TYPE":"U","APOAPSIS":"548.506","COUNTRY_CODE":"US","EPHEMERIS_TYPE":"0","MEAN_ELEMENT_THEORY":"SGP4"},{"PERIOD":"95.593","SEMIMAJOR_AXIS":"6925.380","INCLINATION":"53.0574","ELEMENT_SET_NO":"999","ECCENTRICITY":"0.00017250","OBJECT_NAME":"STARLINK-1238","FILE":"3370190","MEAN_MOTION":"15.06389590","TLE_LINE2":"2 45233  53.0574  47.3581 0001725  64.0275 296.0891 15.06389590116841","RA_OF_ASC_NODE":"47.3581","EPOCH":"2022-03-22T14:22:27.076800","CENTER_NAME":"EARTH","PERIAPSIS":"546.051","LAUNCH_DATE":"2020-02-17","BSTAR":"-0.00007538000000","NORAD_CAT_ID":"45233","TIME_SYSTEM":"UTC","RCS_SIZE":"LARGE","REF_FRAME":"TEME","REV_AT_EPOCH":"11684","OBJECT_ID":"2020-012BH","ARG_OF_PERICENTER":"64.0275","MEAN_MOTION_DOT":"-0.00001404","DECAY_DATE":null,"GP_ID":"199425508","SITE":"AFETR","COUNTRY_CODE":"US","EPHEMERIS_TYPE":"0","MEAN_ELEMENT_THEORY":"SGP4","OBJECT_TYPE":"PAYLOAD","MEAN_MOTION_DDOT":"0.0000000000000","MEAN_ANOMALY":"296.0891","CLASSIFICATION_TYPE":"U","TLE_LINE1":"1 45233U 20012BH  22081.59892450 -.00001404  00000-0 -75380-4 0  9995","APOAPSIS":"548.440"}];
